NORAD_CAT_ID,OBJECT_NAME,OBJECT_TYPE,EPOCH,MEAN_MOTION,ECCENTRICITY,INCLINATION,RA_OF_ASC_NODE,ARG_OF_PERICENTER,MEAN_ANOMALY,BSTAR,MEAN_MOTION_DOT,MEAN_MOTION_DDOT,TLE_LINE0,TLE_LINE1,TLE_LINE2,SEMIMAJOR_AXIS,PERIOD,APOGEE,PERIGEE,DECAYED
55761.0,STARLINK-5611,PAYLOAD,2024-04-13 05:14:28,14.98335186,0.000303,70.0007,178.1743,271.8593,88.2219,0.00011093,1.231e-05,0.0,0 STARLINK-5611,1 55761U 23028W   24104.21838444  .00001231  00000-0  11093-3 0  9998,2 55761  70.0007 178.1743 0003030 271.8593  88.2219 14.98335186 62356,6950.177,96.107,574.148,569.936,0.0
55761.0,STARLINK-5611,PAYLOAD,2024-04-13 14:51:16,14.98340212,0.0002977,70.0008,177.1641,270.5882,89.4935,0.00013636,1.535e-05,0.0,0 STARLINK-5611,1 55761U 23028W   24104.61893967  .00001535  00000-0  13636-3 0  9995,2 55761  70.0008 177.1641 0002977 270.5882  89.4935 14.98340212 62410,6950.161,96.106,574.095,569.957,0.0
55761.0,STARLINK-5611,PAYLOAD,2024-04-14 11:41:01,14.98330638,0.0002874,70.001,174.9769,261.4466,98.6368,0.00011333,1.26e-05,0.0,0 STARLINK-5611,1 55761U 23028W   24105.48682602  .00001260  00000-0  11333-3 0  9990,2 55761  70.0010 174.9769 0002874 261.4466  98.6368 14.98330638 62549,6950.191,96.107,574.053,570.058,0.0
55761.0,STARLINK-5611,PAYLOAD,2024-04-14 14:53:17,14.98332456,0.0002862,70.0011,174.6405,261.2925,98.791,0.00012962,1.454e-05,0.0,0 STARLINK-5611,1 55761U 23028W   24105.62034451  .00001454  00000-0  12962-3 0  9993,2 55761  70.0011 174.6405 0002862 261.2925  98.7910 14.98332456 62565,6950.185,96.107,574.039,570.061,0.0
55761.0,STARLINK-5611,PAYLOAD,2024-04-15 11:43:02,14.98336996,0.0002735,70.0011,172.4519,260.615,99.47,4.7265e-05,4.71e-06,0.0,0 STARLINK-5611,1 55761U 23028W   24106.48822058  .00000471  00000-0  47265-4 0  9999,2 55761  70.0011 172.4519 0002735 260.6150  99.4700 14.98336996 62691,6950.171,96.107,573.937,570.135,0.0
55761.0,STARLINK-5611,PAYLOAD,2024-04-15 13:19:10,14.98335025,0.0002545,70.001,172.2837,263.6531,96.4339,9.4039e-05,1.029e-05,0.0,0 STARLINK-5611,1 55761U 23028W   24106.55498126  .00001029  00000-0  94039-4 0  9993,2 55761  70.0010 172.2837 0002545 263.6531  96.4339 14.98335025 62705,6950.177,96.107,573.811,570.274,0.0
55761.0,STARLINK-5611,PAYLOAD,2024-04-16 11:45:03,14.98310604,0.0002606,70.0011,169.9274,265.1756,94.9106,0.00047702,5.6e-05,0.0,0 STARLINK-5611,1 55761U 23028W   24107.48962882  .00005600  00000-0  47702-3 0  9994,2 55761  70.0011 169.9274 0002606 265.1756  94.9106 14.98310604 62844,6950.253,96.108,573.929,570.307,0.0
55761.0,STARLINK-5611,PAYLOAD,2024-04-16 13:21:11,14.9833228,0.0002676,70.0011,169.7593,262.0462,98.0393,9.4833e-05,1.039e-05,0.0,0 STARLINK-5611,1 55761U 23028W   24107.55638220  .00001039  00000-0  94833-4 0  9998,2 55761  70.0011 169.7593 0002676 262.0462  98.0393 14.98332280 62851,6950.186,96.107,573.911,570.191,0.0
55761.0,STARLINK-5611,PAYLOAD,2024-04-17 13:23:11,14.98339799,0.0002676,70.0008,167.2345,267.3196,92.7657,0.00014259,1.609e-05,0.0,0 STARLINK-5611,1 55761U 23028W   24108.55777370  .00001609  00000-0  14259-3 0  9995,2 55761  70.0008 167.2345 0002676 267.3196  92.7657 14.98339799 63001,6950.163,96.106,573.887,570.168,0.0
55761.0,STARLINK-5611,PAYLOAD,2024-04-17 21:23:52,14.98326928,0.0003208,70.001,166.3941,269.7929,90.2863,3.2304e-06,-5.4e-07,0.0,0 STARLINK-5611,1 55761U 23028W   24108.89158378 -.00000054  00000-0  32304-5 0  9990,2 55761  70.0010 166.3941 0003208 269.7929  90.2863 14.98326928 63055,6950.202,96.107,574.297,569.838,0.0
55761.0,STARLINK-5611,PAYLOAD,2024-04-18 03:48:25,14.98317453,0.0002822,70.0004,165.7174,269.1889,90.8947,3.4289e-05,3.16e-06,0.0,0 STARLINK-5611,1 55761U 23028W   24109.15863209  .00000316  00000-0  34289-4 0  9999,2 55761  70.0004 165.7174 0002822 269.1889  90.8947 14.98317453 63095,6950.232,96.108,574.058,570.135,0.0
55761.0,STARLINK-5611,PAYLOAD,2024-04-18 11:49:06,14.98315029,0.0002791,70.0004,164.8765,265.3532,94.7309,-7.8555e-05,-1.03e-05,0.0,0 STARLINK-5611,1 55761U 23028W   24109.49243835 -.00001030  00000-0 -78555-4 0  9993,2 55761  70.0004 164.8765 0002791 265.3532  94.7309 14.98315029 63147,6950.239,96.108,574.044,570.164,0.0
55761.0,STARLINK-5611,PAYLOAD,2024-04-19 03:50:26,14.98333662,0.0003068,69.9996,163.1933,268.4267,91.6541,4.2822e-05,4.18e-06,0.0,0 STARLINK-5611,1 55761U 23028W   24110.16002608  .00000418  00000-0  42822-4 0  9995,2 55761  69.9996 163.1933 0003068 268.4267  91.6541 14.98333662 63248,6950.182,96.107,574.179,569.914,0.0
55761.0,STARLINK-5611,PAYLOAD,2024-04-19 13:27:14,14.98344659,0.0003023,70.0011,162.1834,267.9684,92.1129,0.00040332,4.724e-05,0.0,0 STARLINK-5611,1 55761U 23028W   24110.56058181  .00004724  00000-0  40332-3 0  9993,2 55761  70.0011 162.1834 0003023 267.9684  92.1129 14.98344659 63309,6950.148,96.106,574.114,569.912,0.0
55761.0,STARLINK-5611,PAYLOAD,2024-04-20 11:53:06,14.98344476,0.0002701,70.0023,159.8284,260.1846,99.9009,0.00044584,5.233e-05,0.0,0 STARLINK-5611,1 55761U 23028W   24111.49521962  .00005233  00000-0  44584-3 0  9997,2 55761  70.0023 159.8284 0002701 260.1846  99.9009 14.98344476 63445,6950.148,96.106,573.89,570.136,0.0
55761.0,STARLINK-5611,PAYLOAD,2024-04-20 13:29:14,14.98345688,0.0002714,70.0023,159.66,263.7421,96.3429,0.00041533,4.868e-05,0.0,0 STARLINK-5611,1 55761U 23028W   24111.56197860  .00004868  00000-0  41533-3 0  9995,2 55761  70.0023 159.6600 0002714 263.7421  96.3429 14.98345688 63451,6950.144,96.106,573.896,570.123,0.0
55761.0,STARLINK-5611,PAYLOAD,2024-04-21 03:54:28,14.98315294,0.0003176,70.0022,158.1443,266.9248,93.1548,-0.00049221,-5.959e-05,0.0,0 STARLINK-5611,1 55761U 23028W   24112.16283033 -.00005959  00000-0 -49221-3 0  9996,2 55761  70.0022 158.1443 0003176 266.9248  93.1548 14.98315294 63541,6950.238,96.108,574.311,569.896,0.0
55761.0,STARLINK-5611,PAYLOAD,2024-04-21 11:55:09,14.98310589,0.0002744,70.0017,157.3033,257.9429,102.1423,-0.00040934,-4.971e-05,0.0,0 STARLINK-5611,1 55761U 23028W   24112.49663937 -.00004971  00000-0 -40934-3 0  9992,2 55761  70.0017 157.3033 0002744 257.9429 102.1423 14.98310589 63592,6950.253,96.108,574.025,570.211,0.0
55761.0,STARLINK-5611,PAYLOAD,2024-04-22 03:56:30,14.98323831,0.0002875,70.0008,155.6188,256.1933,103.8906,6.2648e-06,-1.8e-07,0.0,0 STARLINK-5611,1 55761U 23028W   24113.16423731 -.00000018  00000-0  62648-5 0  9998,2 55761  70.0008 155.6188 0002875 256.1933 103.8906 14.98323831 63699,6950.212,96.107,574.075,570.079,0.0
55761.0,STARLINK-5611,PAYLOAD,2024-04-22 10:21:02,14.98325775,0.0002648,70.0015,154.9468,253.4307,106.6561,9.6496e-05,1.058e-05,0.0,0 STARLINK-5611,1 55761U 23028W   24113.43127801  .00001058  00000-0  96496-4 0  9998,2 55761  70.0015 154.9468 0002648 253.4307 106.6561 14.98325775 63735,6950.206,96.107,573.911,570.231,0.0
55761.0,STARLINK-5611,PAYLOAD,2024-04-22 11:57:10,14.98330938,0.0002677,70.0014,154.7793,255.5033,104.5829,9.6014e-05,1.053e-05,0.0,0 STARLINK-5611,1 55761U 23028W   24113.49803692  .00001053  00000-0  96014-4 0  9994,2 55761  70.0014 154.7793 0002677 255.5033 104.5829 14.98330938 63746,6950.19,96.107,573.916,570.194,0.0
55761.0,STARLINK-5611,PAYLOAD,2024-04-23 03:58:31,14.98331346,0.0003303,69.9998,153.0945,268.1254,91.9527,0.00067786,8.005e-05,0.0,0 STARLINK-5611,1 55761U 23028W   24114.16563828  .00008005  00000-0  67786-3 0  9990,2 55761  69.9998 153.0945 0003303 268.1254  91.9527 14.98331346 63846,6950.189,96.107,574.349,569.758,0.0
55761.0,STARLINK-5611,PAYLOAD,2024-04-23 11:59:11,14.98340427,0.0003017,70.0006,152.2535,261.2215,98.8603,0.00067809,8.009e-05,0.0,0 STARLINK-5611,1 55761U 23028W   24114.49943402  .00008009  00000-0  67809-3 0  9996,2 55761  70.0006 152.2535 0003017 261.2215  98.8603 14.98340427 63894,6950.161,96.106,574.123,569.929,0.0
55761.0,STARLINK-5611,PAYLOAD,2024-04-24 04:00:33,14.98283358,0.0002277,70.0014,150.5701,237.5276,122.5663,-0.0012141,-0.00014531,0.0,0 STARLINK-5611,1 55761U 23028W   24115.16705828 -.00014531  00000-0 -12141-2 0  9996,2 55761  70.0014 150.5701 0002277 237.5276 122.5663 14.98283358 63990,6950.337,96.11,573.785,570.62,0.0
55761.0,STARLINK-5611,PAYLOAD,2024-04-24 12:01:11,14.98336769,0.0002805,70.0006,149.7288,264.8045,95.2794,0.00010648,1.178e-05,0.0,0 STARLINK-5611,1 55761U 23028W   24115.50083166  .00001178  00000-0  10648-3 0  9990,2 55761  70.0006 149.7288 0002805 264.8045  95.2794 14.98336769 64048,6950.172,96.107,573.986,570.087,0.0
55761.0,STARLINK-5611,PAYLOAD,2024-04-25 12:03:11,14.98341282,0.0003128,69.9999,147.2028,269.6376,90.4424,2.821e-05,2.44e-06,0.0,0 STARLINK-5611,1 55761U 23028W   24116.50222202  .00000244  00000-0  28210-4 0  9995,2 55761  69.9999 147.2028 0003128 269.6376  90.4424 14.98341282 64199,6950.158,96.106,574.197,569.849,0.0
55761.0,STARLINK-5611,PAYLOAD,2024-04-26 04:04:32,14.98333628,0.000286,69.9998,145.5198,268.5513,91.5318,0.00022853,2.635e-05,0.0,0 STARLINK-5611,1 55761U 23028W   24117.16982415  .00002635  00000-0  22853-3 0  9999,2 55761  69.9998 145.5198 0002860 268.5513  91.5318 14.98333628 64290,6950.182,96.107,574.034,570.059,0.0
55761.0,STARLINK-5611,PAYLOAD,2024-04-26 12:05:12,14.98338635,0.0003138,69.9998,144.678,268.3962,91.6838,0.00014163,1.598e-05,0.0,0 STARLINK-5611,1 55761U 23028W   24117.50361969  .00001598  00000-0  14163-3 0  9994,2 55761  69.9998 144.6780 0003138 268.3962  91.6838 14.98338635 64349,6950.166,96.106,574.212,569.85,0.0
55761.0,STARLINK-5611,PAYLOAD,2024-04-27 04:06:33,14.98334534,0.0003057,70.0,142.9949,267.4434,92.6375,4.4484e-05,4.38e-06,0.0,0 STARLINK-5611,1 55761U 23028W   24118.17122003  .00000438  00000-0  44484-4 0  9994,2 55761  70.0000 142.9949 0003057 267.4434  92.6375 14.98334534 64440,6950.179,96.107,574.169,569.919,0.0
55761.0,STARLINK-5611,PAYLOAD,2024-04-27 10:31:05,14.98335192,0.0003037,69.9991,142.3217,267.101,92.9801,6.9398e-05,7.35e-06,0.0,0 STARLINK-5611,1 55761U 23028W   24118.43826051  .00000735  00000-0  69398-4 0  9998,2 55761  69.9991 142.3217 0003037 267.1010  92.9801 14.98335192 64485,6950.177,96.107,574.153,569.931,0.0
